*******************************************************************************
Ephemeris / WWW_USER Mon Mar 10 07:22:29 2025 Pasadena, USA      / Horizons    
*******************************************************************************
Target body name: (2018 PC20)                     {source: JPL#4}
Center body name: Earth (399)                     {source: DE441}
Center-site name: Mauna Kea
*******************************************************************************
Start time      : A.D. 2018-Oct-04 04:17:00.0000 UT      
Stop  time      : A.D. 2018-Oct-04 16:04:00.0000 UT      
Step-size       : 1 minutes
*******************************************************************************
Target pole/equ : undefined
Target radii    : undefined                                                    
Center geodetic : 204.5278, 19.8260847, 4.21024   {E-lon(deg),Lat(deg),Alt(km)}
Center cylindric: 204.5278, 6006.35451, 2151.0229 {E-lon(deg),Dxy(km),Dz(km)}
Center pole/equ : ITRF93                          {East-longitude positive}
Center radii    : 6378.137, 6378.137, 6356.752 km {Equator_a, b, pole_c}       
Target primary  : Sun
Vis. interferer : MOON (R_eq= 1737.400) km        {source: DE441}
Rel. light bend : Sun                             {source: DE441}
Rel. lght bnd GM: 1.3271E+11 km^3/s^2                                          
Small-body perts: Yes                             {source: SB441-N16}
Atmos refraction: NO (AIRLESS)
RA format       : HMS
Time format     : CAL 
Calendar mode   : Mixed Julian/Gregorian
RTS-only print  : NO       
EOP file        : eop.250307.p250603                                           
EOP coverage    : DATA-BASED 1962-JAN-20 TO 2025-MAR-07. PREDICTS-> 2025-JUN-02
Units conversion: 1 au= 149597870.700 km, c= 299792.458 km/s, 1 day= 86400.0 s 
Table cut-offs 1: Elevation (-90.0deg=NO ),Airmass (>38.000=NO), Daylight (YES)
Table cut-offs 2: Solar elongation (  0.0,180.0=NO ),Local Hour Angle( 0.0=NO )
Table cut-offs 3: RA/DEC angular rate (     0.0=NO )                           
*******************************************************************************
Initial IAU76/J2000 heliocentric ecliptic osculating elements (au, days, deg.):
  EPOCH=  2458343.5 ! 2018-Aug-13.00 (TDB)         Residual RMS= .24519        
   EC= .404352607301711    QR= 1.018354806317198   TP= 2458318.6524357731      
   OM= 139.299704166656    W=  153.5303944744985   IN= 8.986086735514593       
  Equivalent ICRF heliocentric cartesian coordinates (au, au/d):
   X= 8.116079301925467E-01  Y=-6.140581064636024E-01  Z=-2.698058679324596E-01
  VX= 1.436448164656351E-02 VY= 1.329561442287599E-02 VZ= 2.429594529488231E-03
Asteroid physical parameters (km, seconds, rotational period in hours):        
   GM= n.a.                RAD= n.a.               ROTPER= n.a.                
   H= 25.2                 G= .150                 B-V= n.a.                   
                           ALBEDO= n.a.            STYP= n.a.                  
*******************************************************************************
 Date__(UT)__HR:MN     R.A._________(ICRF)_________DEC
******************************************************
$$SOE
 2018-Oct-04 06:20     00 17 36.471773 -27 51 04.86826
 2018-Oct-04 06:21     00 17 36.465939 -27 51 04.36883
 2018-Oct-04 06:22     00 17 36.460076 -27 51 03.86924
 2018-Oct-04 06:23     00 17 36.454185 -27 51 03.36951
 2018-Oct-04 06:24     00 17 36.448266 -27 51 02.86963
 2018-Oct-04 06:25     00 17 36.442319 -27 51 02.36959
 2018-Oct-04 06:26     00 17 36.436344 -27 51 01.86940
 2018-Oct-04 06:27     00 17 36.430341 -27 51 01.36906
 2018-Oct-04 06:28     00 17 36.424310 -27 51 00.86856
 2018-Oct-04 06:29     00 17 36.418252 -27 51 00.36791
 2018-Oct-04 06:30     00 17 36.412166 -27 50 59.86710
 2018-Oct-04 06:31     00 17 36.406052 -27 50 59.36613
 2018-Oct-04 06:32     00 17 36.399911 -27 50 58.86501
 2018-Oct-04 06:33     00 17 36.393743 -27 50 58.36373
 2018-Oct-04 06:34     00 17 36.387548 -27 50 57.86229
 2018-Oct-04 06:35     00 17 36.381325 -27 50 57.36069
 2018-Oct-04 06:36     00 17 36.375076 -27 50 56.85893
 2018-Oct-04 06:37     00 17 36.368800 -27 50 56.35701
 2018-Oct-04 06:38     00 17 36.362497 -27 50 55.85493
 2018-Oct-04 06:39     00 17 36.356167 -27 50 55.35268
 2018-Oct-04 06:40     00 17 36.349811 -27 50 54.85027
 2018-Oct-04 06:41     00 17 36.343429 -27 50 54.34770
 2018-Oct-04 06:42     00 17 36.337020 -27 50 53.84497
 2018-Oct-04 06:43     00 17 36.330585 -27 50 53.34206
 2018-Oct-04 06:44     00 17 36.324125 -27 50 52.83900
 2018-Oct-04 06:45     00 17 36.317638 -27 50 52.33576
 2018-Oct-04 06:46     00 17 36.311125 -27 50 51.83236
 2018-Oct-04 06:47     00 17 36.304586 -27 50 51.32879
 2018-Oct-04 06:48     00 17 36.298022 -27 50 50.82505
 2018-Oct-04 06:49     00 17 36.291433 -27 50 50.32114
 2018-Oct-04 06:50     00 17 36.284818 -27 50 49.81706
 2018-Oct-04 06:51     00 17 36.278178 -27 50 49.31281
 2018-Oct-04 06:52     00 17 36.271512 -27 50 48.80839
 2018-Oct-04 06:53     00 17 36.264822 -27 50 48.30380
 2018-Oct-04 06:54     00 17 36.258107 -27 50 47.79903
 2018-Oct-04 06:55     00 17 36.251367 -27 50 47.29409
 2018-Oct-04 06:56     00 17 36.244602 -27 50 46.78898
 2018-Oct-04 06:57     00 17 36.237813 -27 50 46.28369
 2018-Oct-04 06:58     00 17 36.230999 -27 50 45.77822
 2018-Oct-04 06:59     00 17 36.224161 -27 50 45.27258
 2018-Oct-04 07:00     00 17 36.217298 -27 50 44.76676
 2018-Oct-04 07:01     00 17 36.210412 -27 50 44.26076
 2018-Oct-04 07:02     00 17 36.203502 -27 50 43.75459
 2018-Oct-04 07:03     00 17 36.196567 -27 50 43.24823
 2018-Oct-04 07:04     00 17 36.189609 -27 50 42.74170
 2018-Oct-04 07:05     00 17 36.182628 -27 50 42.23499
 2018-Oct-04 07:06     00 17 36.175623 -27 50 41.72809
 2018-Oct-04 07:07     00 17 36.168594 -27 50 41.22102
 2018-Oct-04 07:08     00 17 36.161543 -27 50 40.71376
 2018-Oct-04 07:09     00 17 36.154468 -27 50 40.20632
 2018-Oct-04 07:10     00 17 36.147370 -27 50 39.69869
 2018-Oct-04 07:11     00 17 36.140250 -27 50 39.19088
 2018-Oct-04 07:12     00 17 36.133106 -27 50 38.68289
 2018-Oct-04 07:13     00 17 36.125940 -27 50 38.17471
 2018-Oct-04 07:14     00 17 36.118752 -27 50 37.66635
 2018-Oct-04 07:15     00 17 36.111541 -27 50 37.15780
 2018-Oct-04 07:16     00 17 36.104308 -27 50 36.64906
 2018-Oct-04 07:17     00 17 36.097053 -27 50 36.14013
 2018-Oct-04 07:18     00 17 36.089776 -27 50 35.63102
 2018-Oct-04 07:19     00 17 36.082477 -27 50 35.12171
 2018-Oct-04 07:20     00 17 36.075156 -27 50 34.61222
 2018-Oct-04 07:21     00 17 36.067814 -27 50 34.10254
 2018-Oct-04 07:22     00 17 36.060450 -27 50 33.59267
 2018-Oct-04 07:23     00 17 36.053065 -27 50 33.08260
 2018-Oct-04 07:24     00 17 36.045658 -27 50 32.57234
 2018-Oct-04 07:25     00 17 36.038231 -27 50 32.06189
 2018-Oct-04 07:26     00 17 36.030783 -27 50 31.55125
 2018-Oct-04 07:27     00 17 36.023314 -27 50 31.04042
 2018-Oct-04 07:28     00 17 36.015824 -27 50 30.52939
 2018-Oct-04 07:29     00 17 36.008313 -27 50 30.01816
 2018-Oct-04 07:30     00 17 36.000782 -27 50 29.50674
 2018-Oct-04 07:31     00 17 35.993231 -27 50 28.99513
 2018-Oct-04 07:32     00 17 35.985660 -27 50 28.48332
 2018-Oct-04 07:33     00 17 35.978069 -27 50 27.97131
 2018-Oct-04 07:34     00 17 35.970458 -27 50 27.45910
 2018-Oct-04 07:35     00 17 35.962827 -27 50 26.94670
 2018-Oct-04 07:36     00 17 35.955176 -27 50 26.43409
 2018-Oct-04 07:37     00 17 35.947506 -27 50 25.92129
 2018-Oct-04 07:38     00 17 35.939817 -27 50 25.40829
 2018-Oct-04 07:39     00 17 35.932108 -27 50 24.89509
 2018-Oct-04 07:40     00 17 35.924381 -27 50 24.38169
 2018-Oct-04 07:41     00 17 35.916634 -27 50 23.86809
 2018-Oct-04 07:42     00 17 35.908869 -27 50 23.35428
 2018-Oct-04 07:43     00 17 35.901085 -27 50 22.84027
 2018-Oct-04 07:44     00 17 35.893282 -27 50 22.32606
 2018-Oct-04 07:45     00 17 35.885461 -27 50 21.81165
 2018-Oct-04 07:46     00 17 35.877622 -27 50 21.29704
 2018-Oct-04 07:47     00 17 35.869765 -27 50 20.78221
 2018-Oct-04 07:48     00 17 35.861889 -27 50 20.26719
 2018-Oct-04 07:49     00 17 35.853996 -27 50 19.75196
 2018-Oct-04 07:50     00 17 35.846085 -27 50 19.23652
 2018-Oct-04 07:51     00 17 35.838157 -27 50 18.72088
 2018-Oct-04 07:52     00 17 35.830211 -27 50 18.20503
 2018-Oct-04 07:53     00 17 35.822248 -27 50 17.68898
 2018-Oct-04 07:54     00 17 35.814268 -27 50 17.17271
 2018-Oct-04 07:55     00 17 35.806271 -27 50 16.65624
 2018-Oct-04 07:56     00 17 35.798257 -27 50 16.13956
 2018-Oct-04 07:57     00 17 35.790226 -27 50 15.62267
 2018-Oct-04 07:58     00 17 35.782179 -27 50 15.10557
 2018-Oct-04 07:59     00 17 35.774115 -27 50 14.58827
 2018-Oct-04 08:00     00 17 35.766035 -27 50 14.07075
 2018-Oct-04 08:01     00 17 35.757939 -27 50 13.55302
 2018-Oct-04 08:02     00 17 35.749827 -27 50 13.03508
 2018-Oct-04 08:03     00 17 35.741699 -27 50 12.51693
 2018-Oct-04 08:04     00 17 35.733556 -27 50 11.99857
 2018-Oct-04 08:05     00 17 35.725396 -27 50 11.47999
 2018-Oct-04 08:06     00 17 35.717222 -27 50 10.96120
 2018-Oct-04 08:07     00 17 35.709032 -27 50 10.44220
 2018-Oct-04 08:08     00 17 35.700827 -27 50 09.92298
 2018-Oct-04 08:09     00 17 35.692607 -27 50 09.40355
 2018-Oct-04 08:10     00 17 35.684372 -27 50 08.88391
 2018-Oct-04 08:11     00 17 35.676123 -27 50 08.36405
 2018-Oct-04 08:12     00 17 35.667859 -27 50 07.84398
 2018-Oct-04 08:13     00 17 35.659580 -27 50 07.32368
 2018-Oct-04 08:14     00 17 35.651288 -27 50 06.80318
 2018-Oct-04 08:15     00 17 35.642981 -27 50 06.28246
 2018-Oct-04 08:16     00 17 35.634660 -27 50 05.76152
 2018-Oct-04 08:17     00 17 35.626326 -27 50 05.24036
 2018-Oct-04 08:18     00 17 35.617978 -27 50 04.71899
 2018-Oct-04 08:19     00 17 35.609616 -27 50 04.19739
 2018-Oct-04 08:20     00 17 35.601241 -27 50 03.67558
 2018-Oct-04 08:21     00 17 35.592853 -27 50 03.15355
 2018-Oct-04 08:22     00 17 35.584452 -27 50 02.63130
